NORAD_CAT_ID,OBJECT_NAME,OBJECT_TYPE,EPOCH,MEAN_MOTION,ECCENTRICITY,INCLINATION,RA_OF_ASC_NODE,ARG_OF_PERICENTER,MEAN_ANOMALY,BSTAR,MEAN_MOTION_DOT,MEAN_MOTION_DDOT,TLE_LINE0,TLE_LINE1,TLE_LINE2,SEMIMAJOR_AXIS,PERIOD,APOGEE,PERIGEE,DECAYED
55629.0,STARLINK-5497,PAYLOAD,2024-07-17 15:19:56,14.98331343,0.0003069,70.0002,277.5129,266.9593,93.1214,4.3801e-05,4.3e-06,0.0,0 STARLINK-5497,1 55629U 23021B   24199.63884737  .00000430  00000-0  43801-4 0  9993,2 55629  70.0002 277.5129 0003069 266.9593  93.1214 14.98331343 78418,6950.189,96.107,574.187,569.921,0.0
55629.0,STARLINK-5497,PAYLOAD,2024-07-18 05:45:09,14.98313022,0.0003018,70.0005,275.9987,268.3441,91.7373,0.00039565,4.629e-05,0.0,0 STARLINK-5497,1 55629U 23021B   24200.23969151  .00004629  00000-0  39565-3 0  9991,2 55629  70.0005 275.9987 0003018 268.3441  91.7373 14.98313022 78208,6950.245,96.108,574.208,570.013,0.0
55629.0,STARLINK-5497,PAYLOAD,2024-07-18 12:09:41,14.98328207,0.0002954,70.0004,275.3242,267.5366,92.5455,0.00013848,1.56e-05,0.0,0 STARLINK-5497,1 55629U 23021B   24200.50672818  .00001560  00000-0  13848-3 0  9999,2 55629  70.0004 275.3242 0002954 267.5366  92.5455 14.98328207 78245,6950.198,96.107,574.117,570.01,0.0
55629.0,STARLINK-5497,PAYLOAD,2024-07-18 13:45:49,14.9832784,0.0002932,70.0004,275.1556,267.3359,92.7464,0.00017226,1.963e-05,0.0,0 STARLINK-5497,1 55629U 23021B   24200.57348784  .00001963  00000-0  17226-3 0  9999,2 55629  70.0004 275.1556 0002932 267.3359  92.7464 14.98327840 78555,6950.2,96.107,574.102,570.027,0.0
55629.0,STARLINK-5497,PAYLOAD,2024-07-18 15:21:57,14.98319454,0.0002536,70.0003,274.9874,263.604,96.4831,0.0003418,3.986e-05,0.0,0 STARLINK-5497,1 55629U 23021B   24200.64025067  .00003986  00000-0  34180-3 0  9998,2 55629  70.0003 274.9874 0002536 263.6040  96.4831 14.98319454 78562,6950.226,96.108,573.853,570.328,0.0
55629.0,STARLINK-5497,PAYLOAD,2024-07-19 12:11:42,14.98330397,0.0003004,70.0001,272.7988,268.9716,91.1099,5.9566e-05,6.18e-06,0.0,0 STARLINK-5497,1 55629U 23021B   24201.50812802  .00000618  00000-0  59566-4 0  9990,2 55629  70.0001 272.7988 0003004 268.9716  91.1099 14.98330397 78399,6950.192,96.107,574.145,569.969,0.0
55629.0,STARLINK-5497,PAYLOAD,2024-07-19 13:47:50,14.98331526,0.0002994,70.0001,272.6305,268.9065,91.1751,7.0851e-05,7.53e-06,0.0,0 STARLINK-5497,1 55629U 23021B   24201.57488696  .00000753  00000-0  70851-4 0  9997,2 55629  70.0001 272.6305 0002994 268.9065  91.1751 14.98331526 78700,6950.188,96.107,574.134,569.972,0.0
55629.0,STARLINK-5497,PAYLOAD,2024-07-19 21:48:30,14.98333286,0.0003028,70.0,271.7885,269.416,90.6652,7.1704e-05,7.63e-06,0.0,0 STARLINK-5497,1 55629U 23021B   24201.90868526  .00000763  00000-0  71704-4 0  9997,2 55629  70.0000 271.7885 0003028 269.4160  90.6652 14.98333286 78757,6950.183,96.107,574.152,569.943,0.0
55629.0,STARLINK-5497,PAYLOAD,2024-07-20 12:13:42,14.9833587,0.0003061,69.9998,270.2735,266.7877,93.2932,5.8441e-05,6.04e-06,0.0,0 STARLINK-5497,1 55629U 23021B   24202.50952267  .00000604  00000-0  58441-4 0  9997,2 55629  69.9998 270.2735 0003061 266.7877  93.2932 14.98335870 78548,6950.175,96.107,574.167,569.912,0.0
55629.0,STARLINK-5497,PAYLOAD,2024-07-20 13:49:50,14.98336819,0.0003053,69.9998,270.1052,267.0991,92.9819,6.8577e-05,7.25e-06,0.0,0 STARLINK-5497,1 55629U 23021B   24202.57628161  .00000725  00000-0  68577-4 0  9992,2 55629  69.9998 270.1052 0003053 267.0991  92.9819 14.98336819 78859,6950.172,96.107,574.159,569.915,0.0
55629.0,STARLINK-5497,PAYLOAD,2024-07-21 05:51:11,14.98328166,0.0002956,69.9999,268.4216,265.6265,94.4557,1.5335e-05,9e-07,0.0,0 STARLINK-5497,1 55629U 23021B   24203.24388738  .00000090  00000-0  15335-4 0  9999,2 55629  69.9999 268.4216 0002956 265.6265  94.4557 14.98328166 78651,6950.199,96.107,574.118,570.009,0.0
55629.0,STARLINK-5497,PAYLOAD,2024-07-21 13:51:52,14.98326821,0.0003008,69.9998,267.5801,266.4951,93.5864,-7.9033e-06,-1.87e-06,0.0,0 STARLINK-5497,1 55629U 23021B   24203.57768938 -.00000187  00000-0 -79033-5 0  9994,2 55629  69.9998 267.5801 0003008 266.4951  93.5864 14.98326821 79007,6950.203,96.107,574.158,569.977,0.0
55629.0,STARLINK-5497,PAYLOAD,2024-07-22 09:05:28,14.98330983,0.0003075,69.9995,265.5598,266.4959,93.5848,3.2381e-05,2.93e-06,0.0,0 STARLINK-5497,1 55629U 23021B   24204.37880544  .00000293  00000-0  32381-4 0  9991,2 55629  69.9995 265.5598 0003075 266.4959  93.5848 14.98330983 78822,6950.19,96.107,574.192,569.918,0.0
55629.0,STARLINK-5497,PAYLOAD,2024-07-22 13:53:52,14.98333642,0.0003092,69.9994,265.0546,266.6441,93.4365,3.6056e-05,3.37e-06,0.0,0 STARLINK-5497,1 55629U 23021B   24204.57908349  .00000337  00000-0  36056-4 0  9999,2 55629  69.9994 265.0546 0003092 266.6441  93.4365 14.98333642 79151,6950.182,96.107,574.196,569.898,0.0
55629.0,STARLINK-5497,PAYLOAD,2024-07-23 09:07:29,14.98333452,0.0003218,69.9991,263.0353,266.9253,93.1537,0.00013698,1.542e-05,0.0,0 STARLINK-5497,1 55629U 23021B   24205.38019989  .00001542  00000-0  13698-3 0  9997,2 55629  69.9991 263.0353 0003218 266.9253  93.1537 14.98333452 78972,6950.182,96.107,574.284,569.811,0.0
55629.0,STARLINK-5497,PAYLOAD,2024-07-23 13:55:53,14.98332737,0.0003244,69.9991,262.5305,267.8894,92.1894,0.00012031,1.343e-05,0.0,0 STARLINK-5497,1 55629U 23021B   24205.58048059  .00001343  00000-0  12031-3 0  9998,2 55629  69.9991 262.5305 0003244 267.8894  92.1894 14.98332737 79301,6950.184,96.107,574.304,569.795,0.0
55629.0,STARLINK-5497,PAYLOAD,2024-07-24 04:21:10,14.98292877,0.0002864,70.0026,261.0262,277.9399,82.1435,-0.00035112,-4.276e-05,0.0,0 STARLINK-5497,1 55629U 23021B   24206.18137084 -.00004276  00000-0 -35112-3 0  9997,2 55629  70.0026 261.0262 0002864 277.9399  82.1435 14.98292877 79094,6950.308,96.109,574.163,570.182,0.0
55629.0,STARLINK-5497,PAYLOAD,2024-07-24 09:09:31,14.98327305,0.0002736,69.9995,260.5104,248.8174,111.2693,1.7876e-05,1.2e-06,0.0,0 STARLINK-5497,1 55629U 23021B   24206.38161984  .00000120  00000-0  17876-4 0  9995,2 55629  69.9995 260.5104 0002736 248.8174 111.2693 14.98327305 79120,6950.201,96.107,573.968,570.165,0.0
55629.0,STARLINK-5497,PAYLOAD,2024-07-24 13:57:56,14.98331011,0.0003125,69.9982,260.0031,269.8819,90.1982,2.2403e-05,1.74e-06,0.0,0 STARLINK-5497,1 55629U 23021B   24206.58189867  .00000174  00000-0  22403-4 0  9998,2 55629  69.9982 260.0031 0003125 269.8819  90.1982 14.98331011 79453,6950.19,96.107,574.227,569.883,0.0
55629.0,STARLINK-5497,PAYLOAD,2024-07-25 04:23:07,14.98337183,0.0003503,69.9975,258.4884,272.6895,87.3863,0.00012964,1.454e-05,0.0,0 STARLINK-5497,1 55629U 23021B   24207.18273137  .00001454  00000-0  12964-3 0  9991,2 55629  69.9975 258.4884 0003503 272.6895  87.3863 14.98337183 79247,6950.171,96.107,574.47,569.601,0.0
55629.0,STARLINK-5497,PAYLOAD,2024-07-25 05:59:15,14.9833749,0.0003297,69.9982,258.3205,270.0646,90.0135,0.00015799,1.793e-05,0.0,0 STARLINK-5497,1 55629U 23021B   24207.24949033  .00001793  00000-0  15799-3 0  9998,2 55629  69.9982 258.3205 0003297 270.0646  90.0135 14.98337490 79555,6950.17,96.107,574.326,569.743,0.0
55629.0,STARLINK-5497,PAYLOAD,2024-07-25 13:59:55,14.98342607,0.0003328,69.9979,257.4783,272.0633,88.0145,0.00019641,2.252e-05,0.0,0 STARLINK-5497,1 55629U 23021B   24207.58328508  .00002252  00000-0  19641-3 0  9994,2 55629  69.9979 257.4783 0003328 272.0633  88.0145 14.98342607 79605,6950.154,96.106,574.332,569.706,0.0
55629.0,STARLINK-5497,PAYLOAD,2024-07-26 04:25:08,14.98341308,0.0002867,69.998,255.9635,266.0911,93.992,0.00011592,1.291e-05,0.0,0 STARLINK-5497,1 55629U 23021B   24208.18412997  .00001291  00000-0  11592-3 0  9996,2 55629  69.9980 255.9635 0002867 266.0911  93.9920 14.98341308 79394,6950.158,96.106,574.016,570.03,0.0
55629.0,STARLINK-5497,PAYLOAD,2024-07-26 14:01:56,14.98343423,0.0002872,69.9981,254.9539,266.5496,93.5335,0.00012647,1.417e-05,0.0,0 STARLINK-5497,1 55629U 23021B   24208.58468505  .00001417  00000-0  12647-3 0  9998,2 55629  69.9981 254.9539 0002872 266.5496  93.5335 14.98343423 79752,6950.151,96.106,574.012,570.02,0.0
55629.0,STARLINK-5497,PAYLOAD,2024-07-26 20:26:28,14.98347639,0.0003008,69.9982,254.2805,267.2121,92.8694,-6.3198e-05,-8.47e-06,0.0,0 STARLINK-5497,1 55629U 23021B   24208.85172377 -.00000847  00000-0 -63198-4 0  9993,2 55629  69.9982 254.2805 0003008 267.2121  92.8694 14.98347639 79794,6950.138,96.106,574.094,569.913,0.0
55629.0,STARLINK-5497,PAYLOAD,2024-07-27 04:27:09,14.98341569,0.0002808,69.9983,253.4392,266.815,93.2687,-5.0688e-05,-6.98e-06,0.0,0 STARLINK-5497,1 55629U 23021B   24209.18552538 -.00000698  00000-0 -50688-4 0  9995,2 55629  69.9983 253.4392 0002808 266.8150  93.2687 14.98341569 79547,6950.157,96.106,573.974,570.071,0.0
55629.0,STARLINK-5497,PAYLOAD,2024-07-27 06:03:17,14.98341869,0.0002804,69.9982,253.2705,266.0755,94.0084,-6.0532e-05,-8.15e-06,0.0,0 STARLINK-5497,1 55629U 23021B   24209.25228481 -.00000815  00000-0 -60532-4 0  9990,2 55629  69.9982 253.2705 0002804 266.0755  94.0084 14.98341869 79858,6950.156,96.106,573.97,570.072,0.0
55629.0,STARLINK-5497,PAYLOAD,2024-07-27 09:15:33,14.9834104,0.0002829,69.9982,252.934,266.8899,93.1937,-7.1154e-05,-9.42e-06,0.0,0 STARLINK-5497,1 55629U 23021B   24209.38580443 -.00000942  00000-0 -71154-4 0  9996,2 55629  69.9982 252.9340 0002829 266.8899  93.1937 14.98341040 79873,6950.159,96.106,573.99,570.058,0.0
55629.0,STARLINK-5497,PAYLOAD,2024-07-28 04:29:10,14.98328045,0.0002979,69.9978,250.9137,268.9184,91.1633,6.3904e-05,6.7e-06,0.0,0 STARLINK-5497,1 55629U 23021B   24210.18692522  .00000670  00000-0  63904-4 0  9998,2 55629  69.9978 250.9137 0002979 268.9184  91.1633 14.98328045 79697,6950.199,96.107,574.134,569.993,0.0
55629.0,STARLINK-5497,PAYLOAD,2024-07-28 12:29:50,14.98334593,0.0003092,69.9978,250.0719,269.9174,90.163,-9.0852e-05,-1.177e-05,0.0,0 STARLINK-5497,1 55629U 23021B   24210.52072342 -.00001177  00000-0 -90852-4 0  9995,2 55629  69.9978 250.0719 0003092 269.9174  90.1630 14.98334593 80043,6950.179,96.107,574.193,569.895,0.0
